GLOBALSTAR M057         
1 25943U 99058A   24229.88214720 -.00000072  00000+0  18808-3 0  9992
2 25943  51.9975 131.7978 0002698  95.5932 264.5225 12.24791497129649
GLOBALSTAR M059         
1 25944U 99058B   24229.48478039 -.00000096  00000+0 -12490-3 0  9992
2 25944  52.0036 311.4845 0000701 103.8694  10.0501 11.99964581537462
GLOBALSTAR M056         
1 25945U 99058C   24229.79593117 -.00000095  00000+0 -86847-4 0  9999
2 25945  51.9987 320.4176 0000289 247.7105 261.1166 12.04775341125931
GLOBALSTAR M031         
1 25946U 99058D   24229.56328339 -.00000102  00000+0 -11590-3 0  9998
2 25946  51.9936 231.6149 0001424 278.6792 233.5196 12.16014436127488
GLOBALSTAR M039         
1 25961U 99062A   24229.63502213 -.00000076  00000+0  15762-3 0  9997
2 25961  51.9838 116.3046 0003402  38.1132 321.9975 12.62299650141753
GLOBALSTAR M034         
1 25962U 99062B   24228.92834215 -.00000094  00000+0 -20481-3 0  9994
2 25962  51.9870  84.8745 0013564 182.0631 190.7904 11.79430664102376
GLOBALSTAR M029         
1 25963U 99062C   24229.86706267 -.00000064  00000+0  28032-3 0  9990
2 25963  51.9780 198.7448 0002443 244.4947 131.1473 11.99882050132598
GLOBALSTAR M061         
1 25964U 99062D   24229.63064139 -.00000030  00000+0  83215-3 0  9998
2 25964  51.9772 263.0497 0006114 114.3988  32.6772 11.76763791 85329
